start=new Date('2022-09-11T00:00:00.000Z').valueOf();
sats=[{"TLE_LINE2":"2 44922  53.0542 315.1331 0001197  80.4003 279.7121 15.06405608147514","TIME_SYSTEM":"UTC","REF_FRAME":"TEME","CLASSIFICATION_TYPE":"U","SITE":"AFETR","OBJECT_ID":"2020-001J","GP_ID":"212265749","ARG_OF_PERICENTER":"80.4003","MEAN_MOTION_DDOT":"0.0000000000000","LAUNCH_DATE":"2020-01-07","OBJECT_TYPE":"PAYLOAD","INCLINATION":"53.0542","MEAN_MOTION_DOT":"0.00002800","APOAPSIS":"548.025","ELEMENT_SET_NO":"999","DECAY_DATE":null,"SEMIMAJOR_AXIS":"6925.331","EPOCH":"2022-09-10T14:49:56.583264","FILE":"3567798","PERIAPSIS":"546.367","EPHEMERIS_TYPE":"0","ECCENTRICITY":"0.00011970","RCS_SIZE":"LARGE","MEAN_ELEMENT_THEORY":"SGP4","NORAD_CAT_ID":"44922","CENTER_NAME":"EARTH","REV_AT_EPOCH":"14751","TLE_LINE1":"1 44922U 20001J   22253.61801601  .00002800  00000-0  20676-3 0  9995","BSTAR":"0.00020676000000","PERIOD":"95.592","MEAN_MOTION":"15.06405608","RA_OF_ASC_NODE":"315.1331","OBJECT_NAME":"STARLINK-1104","MEAN_ANOMALY":"279.7121","COUNTRY_CODE":"US"},{"MEAN_MOTION_DDOT":"0.0000000000000","ARG_OF_PERICENTER":"82.1656","GP_ID":"212265999","LAUNCH_DATE":"2020-01-07","REF_FRAME":"TEME","TLE_LINE2":"2 44923  53.0554 315.3166 0001408  82.1656 277.9493 15.06396979147505","TIME_SYSTEM":"UTC","CLASSIFICATION_TYPE":"U","OBJECT_ID":"2020-001K","SITE":"AFETR","ELEMENT_SET_NO":"999","APOAPSIS":"548.198","DECAY_DATE":null,"OBJECT_TYPE":"PAYLOAD","MEAN_MOTION_DOT":"0.00000108","INCLINATION":"53.0554","EPHEMERIS_TYPE":"0","ECCENTRICITY":"0.00014080","RCS_SIZE":"LARGE","MEAN_ELEMENT_THEORY":"SGP4","EPOCH":"2022-09-10T13:51:34.025760","SEMIMAJOR_AXIS":"6925.358","FILE":"3567798","PERIAPSIS":"546.248","MEAN_MOTION":"15.06396979","MEAN_ANOMALY":"277.9493","COUNTRY_CODE":"US","RA_OF_ASC_NODE":"315.3166","OBJECT_NAME":"STARLINK-1106","NORAD_CAT_ID":"44923","TLE_LINE1":"1 44923U 20001K   22253.57747715  .00000108  00000-0  26161-4 0  9991","REV_AT_EPOCH":"14750","CENTER_NAME":"EARTH","BSTAR":"0.00002616100000","PERIOD":"95.592"},{"BSTAR":"0.00013425000000","PERIOD":"95.592","REV_AT_EPOCH":"14749","TLE_LINE1":"1 44924U 20001L   22253.50007122  .00001719  00000-0  13425-3 0  9993","CENTER_NAME":"EARTH","NORAD_CAT_ID":"44924","MEAN_ANOMALY":"274.3074","COUNTRY_CODE":"US","RA_OF_ASC_NODE":"315.6721","OBJECT_NAME":"STARLINK-1111","MEAN_MOTION":"15.06403658","PERIAPSIS":"546.355","FILE":"3567066","EPOCH":"2022-09-10T12:00:06.153408","SEMIMAJOR_AXIS":"6925.337","MEAN_ELEMENT_THEORY":"SGP4","RCS_SIZE":"LARGE","ECCENTRICITY":"0.00012230","EPHEMERIS_TYPE":"0","MEAN_MOTION_DOT":"0.00001719","INCLINATION":"53.0539","OBJECT_TYPE":"PAYLOAD","DECAY_DATE":null,"ELEMENT_SET_NO":"999","APOAPSIS":"548.049","OBJECT_ID":"2020-001L","SITE":"AFETR","CLASSIFICATION_TYPE":"U","REF_FRAME":"TEME","TLE_LINE2":"2 44924  53.0539 315.6721 0001223  85.8054 274.3074 15.06403658147493","TIME_SYSTEM":"UTC","LAUNCH_DATE":"2020-01-07","MEAN_MOTION_DDOT":"0.0000000000000","ARG_OF_PERICENTER":"85.8054","GP_ID":"212225353"},{"ELEMENT_SET_NO":"999","APOAPSIS":"548.262","DECAY_DATE":null,"OBJECT_TYPE":"PAYLOAD","MEAN_MOTION_DOT":"0.00001784","INCLINATION":"53.0553","MEAN_MOTION_DDOT":"0.0000000000000","GP_ID":"212267499","ARG_OF_PERICENTER":"80.4831","LAUNCH_DATE":"2020-01-07","REF_FRAME":"TEME","TLE_LINE2":"2 44925  53.0553 315.2899 0001527  80.4831 279.6330 15.06403018147508","TIME_SYSTEM":"UTC","CLASSIFICATION_TYPE":"U","SITE":"AFETR","OBJECT_ID":"2020-001M","MEAN_MOTION":"15.06403018","COUNTRY_CODE":"US","MEAN_ANOMALY":"279.6330","RA_OF_ASC_NODE":"315.2899","OBJECT_NAME":"STARLINK-1112","NORAD_CAT_ID":"44925","TLE_LINE1":"1 44925U 20001M   22253.58115397  .00001784  00000-0  13861-3 0  9992","REV_AT_EPOCH":"14750","CENTER_NAME":"EARTH","BSTAR":"0.00013861000000","PERIOD":"95.592","EPHEMERIS_TYPE":"0","ECCENTRICITY":"0.00015270","MEAN_ELEMENT_THEORY":"SGP4","RCS_SIZE":"LARGE","EPOCH":"2022-09-10T13:56:51.703008","SEMIMAJOR_AXIS":"6925.339","FILE":"3567798","PERIAPSIS":"546.147"},{"PERIAPSIS":"548.794","FILE":"3567066","SEMIMAJOR_AXIS":"6927.830","EPOCH":"2022-09-10T12:04:09.872256","RCS_SIZE":"LARGE","MEAN_ELEMENT_THEORY":"SGP4","ECCENTRICITY":"0.00013010","EPHEMERIS_TYPE":"0","BSTAR":"0.00005381200000","PERIOD":"95.644","CENTER_NAME":"EARTH","REV_AT_EPOCH":"14819","TLE_LINE1":"1 44926U 20001N   22253.50289204  .00000505  00000-0  53812-4 0  9995","NORAD_CAT_ID":"44926","RA_OF_ASC_NODE":"315.6621","OBJECT_NAME":"STARLINK-1113","COUNTRY_CODE":"US","MEAN_ANOMALY":"258.5005","MEAN_MOTION":"15.05590591","SITE":"AFETR","OBJECT_ID":"2020-001N","CLASSIFICATION_TYPE":"U","TLE_LINE2":"2 44926  53.0007 315.6621 0001301 101.6129 258.5005 15.05590591148199","TIME_SYSTEM":"UTC","REF_FRAME":"TEME","LAUNCH_DATE":"2020-01-07","ARG_OF_PERICENTER":"101.6129","GP_ID":"212223861","MEAN_MOTION_DDOT":"0.0000000000000","INCLINATION":"53.0007","MEAN_MOTION_DOT":"0.00000505","OBJECT_TYPE":"PAYLOAD","DECAY_DATE":null,"APOAPSIS":"550.597","ELEMENT_SET_NO":"999"},{"EPHEMERIS_TYPE":"0","MEAN_ELEMENT_THEORY":"SGP4","RCS_SIZE":"LARGE","ECCENTRICITY":"0.00014320","EPOCH":"2022-09-10T12:37:15.436704","SEMIMAJOR_AXIS":"6925.372","PERIAPSIS":"546.245","FILE":"3567798","MEAN_ANOMALY":"292.9063","COUNTRY_CODE":"US","OBJECT_NAME":"STARLINK-1114","RA_OF_ASC_NODE":"315.5318","MEAN_MOTION":"15.06392317","NORAD_CAT_ID":"44927","PERIOD":"95.593","BSTAR":"0.00003089800000","TLE_LINE1":"1 44927U 20001P   22253.52587311  .00000179  00000-0  30898-4 0  9994","REV_AT_EPOCH":"14750","CENTER_NAME":"EARTH","LAUNCH_DATE":"2020-01-07","MEAN_MOTION_DDOT":"0.0000000000000","ARG_OF_PERICENTER":"67.2077","GP_ID":"212266499","REF_FRAME":"TEME","TIME_SYSTEM":"UTC","TLE_LINE2":"2 44927  53.0563 315.5318 0001432  67.2077 292.9063 15.06392317147500","SITE":"AFETR","OBJECT_ID":"2020-001P","CLASSIFICATION_TYPE":"U","ELEMENT_SET_NO":"999","APOAPSIS":"548.229","DECAY_DATE":null,"OBJECT_TYPE":"PAYLOAD","MEAN_MOTION_DOT":"0.00000179","INCLINATION":"53.0563"},{"OBJECT_TYPE":"PAYLOAD","INCLINATION":"53.0563","MEAN_MOTION_DOT":"0.00000546","APOAPSIS":"548.211","ELEMENT_SET_NO":"999","DECAY_DATE":null,"TIME_SYSTEM":"UTC","TLE_LINE2":"2 44928  53.0563 315.2548 0001415  71.5912 288.5231 15.06394339147515","REF_FRAME":"TEME","SITE":"AFETR","OBJECT_ID":"2020-001Q","CLASSIFICATION_TYPE":"U","LAUNCH_DATE":"2020-01-07","GP_ID":"212266750","ARG_OF_PERICENTER":"71.5912","MEAN_MOTION_DDOT":"0.0000000000000","NORAD_CAT_ID":"44928","BSTAR":"0.00005555700000","PERIOD":"95.592","CENTER_NAME":"EARTH","TLE_LINE1":"1 44928U 20001Q   22253.58853273  .00000546  00000-0  55557-4 0  9991","REV_AT_EPOCH":"14751","RA_OF_ASC_NODE":"315.2548","OBJECT_NAME":"STARLINK-1119","COUNTRY_CODE":"US","MEAN_ANOMALY":"288.5231","MEAN_MOTION":"15.06394339","SEMIMAJOR_AXIS":"6925.366","EPOCH":"2022-09-10T14:07:29.227872","PERIAPSIS":"546.251","FILE":"3567798","EPHEMERIS_TYPE":"0","RCS_SIZE":"LARGE","MEAN_ELEMENT_THEORY":"SGP4","ECCENTRICITY":"0.00014150"},{"MEAN_MOTION_DDOT":"0.0000000000000","ARG_OF_PERICENTER":"82.3222","GP_ID":"212267001","LAUNCH_DATE":"2020-01-07","CLASSIFICATION_TYPE":"U","OBJECT_ID":"2020-001R","SITE":"AFETR","REF_FRAME":"TEME","TLE_LINE2":"2 44929  53.0561 315.3203 0001450  82.3222 277.7931 15.06397345147502","TIME_SYSTEM":"UTC","DECAY_DATE":null,"ELEMENT_SET_NO":"999","APOAPSIS":"548.226","MEAN_MOTION_DOT":"0.00000604","INCLINATION":"53.0561","OBJECT_TYPE":"PAYLOAD","ECCENTRICITY":"0.00014500","MEAN_ELEMENT_THEORY":"SGP4","RCS_SIZE":"LARGE","EPHEMERIS_TYPE":"0","FILE":"3567798","PERIAPSIS":"546.218","EPOCH":"2022-09-10T13:46:15.127680","SEMIMAJOR_AXIS":"6925.357","MEAN_MOTION":"15.06397345","COUNTRY_CODE":"US","MEAN_ANOMALY":"277.7931","OBJECT_NAME":"STARLINK-1121","RA_OF_ASC_NODE":"315.3203","REV_AT_EPOCH":"14750","TLE_LINE1":"1 44929U 20001R   22253.57378620  .00000604  00000-0  59453-4 0  9993","CENTER_NAME":"EARTH","BSTAR":"0.00005945300000","PERIOD":"95.592","NORAD_CAT_ID":"44929"},{"FILE":"3567066","PERIAPSIS":"546.203","EPOCH":"2022-09-10T09:47:24.332064","SEMIMAJOR_AXIS":"6925.358","ECCENTRICITY":"0.00014730","RCS_SIZE":"LARGE","MEAN_ELEMENT_THEORY":"SGP4","EPHEMERIS_TYPE":"0","REV_AT_EPOCH":"14748","TLE_LINE1":"1 44930U 20001S   22253.40792051 -.00001211  00000-0 -62411-4 0  9990","CENTER_NAME":"EARTH","PERIOD":"95.592","BSTAR":"-0.00006241100000","NORAD_CAT_ID":"44930","MEAN_MOTION":"15.06396929","MEAN_ANOMALY":"270.1629","COUNTRY_CODE":"US","RA_OF_ASC_NODE":"316.0777","OBJECT_NAME":"STARLINK-1123","CLASSIFICATION_TYPE":"U","OBJECT_ID":"2020-001S","SITE":"AFETR","REF_FRAME":"TEME","TLE_LINE2":"2 44930  53.0559 316.0777 0001473  89.9529 270.1629 15.06396929147488","TIME_SYSTEM":"UTC","MEAN_MOTION_DDOT":"0.0000000000000","GP_ID":"212224362","ARG_OF_PERICENTER":"89.9529","LAUNCH_DATE":"2020-01-07","MEAN_MOTION_DOT":"-0.00001211","INCLINATION":"53.0559","OBJECT_TYPE":"PAYLOAD","DECAY_DATE":null,"ELEMENT_SET_NO":"999","APOAPSIS":"548.243"},{"EPOCH":"2022-09-10T13:30:25.829280","SEMIMAJOR_AXIS":"6912.844","FILE":"3567798","PERIAPSIS":"533.512","EPHEMERIS_TYPE":"0","ECCENTRICITY":"0.00017320","MEAN_ELEMENT_THEORY":"SGP4","RCS_SIZE":"LARGE","NORAD_CAT_ID":"44931","TLE_LINE1":"1 44931U 20001T   22253.56279895  .00001285  00000-0  94750-4 0  9994","REV_AT_EPOCH":"14836","CENTER_NAME":"EARTH","PERIOD":"95.333","BSTAR":"0.00009475000000","MEAN_MOTION":"15.10489269","COUNTRY_CODE":"US","MEAN_ANOMALY":"300.3674","OBJECT_NAME":"STARLINK-1128","RA_OF_ASC_NODE":"307.4761","REF_FRAME":"TEME","TLE_LINE2":"2 44931  53.0554 307.4761 0001732  59.7488 300.3674 15.10489269148367","TIME_SYSTEM":"UTC","CLASSIFICATION_TYPE":"U","OBJECT_ID":"2020-001T","SITE":"AFETR","MEAN_MOTION_DDOT":"0.0000000000000","GP_ID":"212266000","ARG_OF_PERICENTER":"59.7488","LAUNCH_DATE":"2020-01-07","OBJECT_TYPE":"PAYLOAD","MEAN_MOTION_DOT":"0.00001285","INCLINATION":"53.0554","ELEMENT_SET_NO":"999","APOAPSIS":"535.906","DECAY_DATE":null}];
